GALAXY 3C (G-3C)        
1 27445U 02030A   26157.39995402 -.00000139  00000+0  00000+0 0  9991
2 27445   3.7024  78.1196 0001907  30.9797 194.8532  1.00271669 46389
INTELSAT 906 (IS-906)   
1 27513U 02041A   26157.65034233  .00000026  00000+0  00000+0 0  9998
2 27513   5.7771  73.0492 0004760 357.5118 122.7629  1.00270971 86920
NIMIQ 2                 
1 27632U 02062A   26157.38862705 -.00000058  00000+0  00000+0 0  9992
2 27632   9.4209  57.0140 0005835  15.1189 213.3871  1.00272105 44077
USA 167                 
1 27691U 03008A   26156.28378120  .00000012  00000+0  00000+0 0  9998
2 27691  10.9375  43.5144 0004092 316.7807 233.8431  1.00274694  6654
USA 169 (MILSTAR-2 4)   
1 27711U 03012A   26157.60828134 -.00000224  00000+0  00000+0 0  9994
2 27711  12.3332  29.9262 0101156   8.8129 227.4034  1.00271079 32842
ASIASAT 4               
1 27718U 03014A   26157.48323775 -.00000209  00000+0  00000+0 0  9993
2 27718   4.6781  75.8777 0002876   2.1639 138.3581  1.00273096 45194
HELLAS-SAT 2            
1 27811U 03020A   26157.55931003 -.00000072  00000+0  00000+0 0  9999
2 27811   7.3277  68.0110 0002954   4.8136  13.4975  1.00271700 42749
THURAYA-2               
1 27825U 03026A   26157.21358334  .00000135  00000+0  00000+0 0  9992
2 27825   8.8242  32.0268 0003208   2.4343 341.0543  1.00272290 84230
OPTUS C1                
1 27831U 03028B   26157.59198045 -.00000139  00000+0  00000+0 0  9998
2 27831   6.8626  69.5374 0005755   1.8827 192.4097  1.00270430 52953
USA 170                 
1 27875U 03040A   26156.85322256  .00000136  00000+0  00000+0 0  9997
2 27875  10.4757  48.0555 0002523  37.6404 140.0061  1.00277165 32880
GALAXY 13 (HORIZONS-1)  
1 27954U 03044A   26157.53166323  .00000146  00000+0  00000+0 0  9997
2 27954   1.3927  83.9864 0002076 345.5979 226.7431  1.00272433 46463
YAMAL 202               
1 28089U 03053A   26157.60194447 -.00000067  00000+0  00000+0 0  9996
2 28089   6.3180  71.0638 0003348 345.9516 218.2914  1.00272901 82596
UFO 11 (USA 174)        
1 28117U 03057A   26156.73930694 -.00000095  00000+0  00000+0 0  9998
2 28117   8.9311  33.8888 0002403  36.0841 165.8836  1.00274267 82334
USA 176 (DSP 22)        
1 28158U 04004A   26157.55090332 -.00000286  00000+0  00000+0 0  9995
2 28158  12.0475  26.1476 0001105 307.4789  67.2746  1.00409257 32832
ABS-4 (MOBISAT-1)       
1 28184U 04007A   26156.83895047  .00000051  00000+0  00000+0 0  9992
2 28184   6.0142  72.1433 0005078   2.0005 183.0995  1.00270601 52228
INTELSAT 10-02          
1 28358U 04022A   26157.34727770  .00000002  00000+0  00000+0 0  9992
2 28358   0.0105 327.8310 0000311 185.7121 225.2368  1.00269589 80442
ANIK F2                 
1 28378U 04027A   26157.53928993 -.00000036  00000+0  00000+0 0  9998
2 28378   3.2588  79.5880 0004425   1.4726 256.9131  1.00271951 41152
AMC-15                  
1 28446U 04041A   26157.54050328 -.00000075  00000+0  00000+0 0  9992
2 28446   0.0284 306.2770 0002403 131.1018 267.1139  1.00272230 79191
NSS-10                  
1 28526U 05003A   26157.12586976 -.00000239  00000+0  00000+0 0  9999
2 28526   6.4213  70.5876 0003118   1.9719 189.8556  1.00272615 53042
INMARSAT 4-F1           
1 28628U 05009A   26157.63446395  .00000045  00000+0  00000+0 0  9998
2 28628   5.1535  42.7367 0002862  36.6099 222.2333  1.00272422 77569
DIRECTV 8               
1 28659U 05019A   26157.53772992  .00000000  00000+0  00000+0 0  9998
2 28659   0.0168 348.8637 0003021  91.7517 248.8706  1.00269731 76964
GALAXY 28 (G-28)        
1 28702U 05022A   26157.48460991 -.00000187  00000+0  00000+0 0  9995
2 28702   3.2722  79.0600 0002767 355.4718 327.7180  1.00270809 51869
THAICOM 4               
1 28786U 05028A   26157.61493176 -.00000349  00000+0  00000+0 0  9999
2 28786   0.2173  86.0784 0002000 346.2991 163.5417  1.00271557 52142
ANIK F1R                
1 28868U 05036A   26157.40878317 -.00000062  00000+0  00000+0 0  9992
2 28868   4.2845  76.7132 0004409   2.3297 215.6674  1.00272815 46347
SYRACUSE 3A             
1 28885U 05041B   26157.49929176  .00000142  00000+0  00000+0 0  9994
2 28885   4.6167  75.9671 0003138 336.7880  68.5468  1.00270222 75647
INMARSAT 4-F2           
1 28899U 05044A   26157.58972711 -.00000248  00000+0  00000+0 0  9993
2 28899   5.0801  43.7090 0003141  32.6860 174.4008  1.00272329 75416
METEOSAT-9 (MSG-2)      
1 28912U 05049B   26156.84400411  .00000135  00000+0  00000+0 0  9999
2 28912   9.3350  54.2780 0002326  40.8445 148.6919  1.00267887  6887
EUTELSAT 174A           
1 28924U 05052A   26157.60929497  .00000022  00000+0  00000+0 0  9996
2 28924   4.1920  76.6566 0006478 359.5637 212.1524  1.00269665 52225
ECHOSTAR 10             
1 28935U 06003A   26157.53963660 -.00000042  00000+0  00000+0 0  9990
2 28935   0.0170 346.5859 0002208  57.1476 295.3217  1.00271533 74359
SPAINSAT                
1 28945U 06007A   26157.37623077 -.00000203  00000+0  00000+0 0  9991
2 28945   0.5343  86.7314 0005038 347.1578 286.1722  1.00273244 74108
JCSAT-5A                
1 29045U 06010A   26157.58747376 -.00000314  00000+0  00000+0 0  9992
2 29045   1.0811  84.3360 0002132   6.6498 147.5605  1.00271442 73669
ASTRA 1KR               
1 29055U 06012A   26157.56507197  .00000132  00000+0  00000+0 0  9995
2 29055   0.4457  83.2055 0003626 349.4210  44.7769  1.00271861 45592
