OBJECT_NAME,OBJECT_ID,EPOCH,MEAN_MOTION,ECCENTRICITY,INCLINATION,RA_OF_ASC_NODE,ARG_OF_PERICENTER,MEAN_ANOMALY,EPHEMERIS_TYPE,CLASSIFICATION_TYPE,NORAD_CAT_ID,ELEMENT_SET_NO,REV_AT_EPOCH,BSTAR,MEAN_MOTION_DOT,MEAN_MOTION_DDOT
GALAXY 3C (G-3C),2002-030A,2026-06-06T09:35:56.027328,1.00271669,.00019078,3.7024,78.1196,30.9797,194.8532,0,U,27445,999,4638,0,-.139E-5,0
INTELSAT 906 (IS-906),2002-041A,2026-06-06T15:36:29.577312,1.00270971,.00047606,5.7771,73.0492,357.5118,122.7629,0,U,27513,999,8692,0,.26E-6,0
NIMIQ 2,2002-062A,2026-06-06T09:19:37.377120,1.00272105,.00058354,9.4209,57.0140,15.1189,213.3871,0,U,27632,999,4407,0,-.58E-6,0
USA 167,2003-008A,2026-06-05T06:48:38.695680,1.00274694,.00040927,10.9375,43.5144,316.7807,233.8431,0,U,27691,999,665,0,.12E-6,0
USA 169 (MILSTAR-2 4),2003-012A,2026-06-06T14:35:55.507776,1.00271079,.0101156,12.3332,29.9262,8.8129,227.4034,0,U,27711,999,3284,0,-.224E-5,0
ASIASAT 4,2003-014A,2026-06-06T11:35:51.741600,1.00273096,.00028762,4.6781,75.8777,2.1639,138.3581,0,U,27718,999,4519,0,-.209E-5,0
HELLAS-SAT 2,2003-020A,2026-06-06T13:25:24.386592,1.00271700,.00029544,7.3277,68.0110,4.8136,13.4975,0,U,27811,999,4274,0,-.72E-6,0
THURAYA-2,2003-026A,2026-06-06T05:07:33.600576,1.00272290,.00032081,8.8242,32.0268,2.4343,341.0543,0,U,27825,999,8423,0,.135E-5,0
OPTUS C1,2003-028B,2026-06-06T14:12:27.110880,1.00270430,.00057552,6.8626,69.5374,1.8827,192.4097,0,U,27831,999,5295,0,-.139E-5,0
USA 170,2003-040A,2026-06-05T20:28:38.429184,1.00277165,.00025238,10.4757,48.0555,37.6404,140.0061,0,U,27875,999,3288,0,.136E-5,0
GALAXY 13 (HORIZONS-1),2003-044A,2026-06-06T12:45:35.703072,1.00272433,.00020768,1.3927,83.9864,345.5979,226.7431,0,U,27954,999,4646,0,.146E-5,0
YAMAL 202,2003-053A,2026-06-06T14:26:48.002208,1.00272901,.00033488,6.3180,71.0638,345.9516,218.2914,0,U,28089,999,8259,0,-.67E-6,0
UFO 11 (USA 174),2003-057A,2026-06-05T17:44:36.119616,1.00274267,.00024038,8.9311,33.8888,36.0841,165.8836,0,U,28117,999,8233,0,-.95E-6,0
USA 176 (DSP 22),2004-004A,2026-06-06T13:13:18.046848,1.00409257,.00011055,12.0475,26.1476,307.4789,67.2746,0,U,28158,999,3283,0,-.286E-5,0
ABS-4 (MOBISAT-1),2004-007A,2026-06-05T20:08:05.320608,1.00270601,.00050782,6.0142,72.1433,2.0005,183.0995,0,U,28184,999,5222,0,.51E-6,0
INTELSAT 10-02,2004-022A,2026-06-06T08:20:04.793280,1.00269589,.00003119,0.0105,327.8310,185.7121,225.2368,0,U,28358,999,8044,0,.2E-7,0
ANIK F2,2004-027A,2026-06-06T12:56:34.649952,1.00271951,.00044258,3.2588,79.5880,1.4726,256.9131,0,U,28378,999,4115,0,-.36E-6,0
AMC-15,2004-041A,2026-06-06T12:58:19.483392,1.00272230,.00024032,0.0284,306.2770,131.1018,267.1139,0,U,28446,999,7919,0,-.75E-6,0
NSS-10,2005-003A,2026-06-06T03:01:15.147264,1.00272615,.0003118,6.4213,70.5876,1.9719,189.8556,0,U,28526,999,5304,0,-.239E-5,0
INMARSAT 4-F1,2005-009A,2026-06-06T15:13:37.685280,1.00272422,.00028629,5.1535,42.7367,36.6099,222.2333,0,U,28628,999,7756,0,.45E-6,0
DIRECTV 8,2005-019A,2026-06-06T12:54:19.865088,1.00269731,.00030212,0.0168,348.8637,91.7517,248.8706,0,U,28659,999,7696,0,0,0
GALAXY 28 (G-28),2005-022A,2026-06-06T11:37:50.296224,1.00270809,.00027677,3.2722,79.0600,355.4718,327.7180,0,U,28702,999,5186,0,-.187E-5,0
THAICOM 4,2005-028A,2026-06-06T14:45:30.104064,1.00271557,.00020007,0.2173,86.0784,346.2991,163.5417,0,U,28786,999,5214,0,-.349E-5,0
ANIK F1R,2005-036A,2026-06-06T09:48:38.865888,1.00272815,.00044095,4.2845,76.7132,2.3297,215.6674,0,U,28868,999,4634,0,-.62E-6,0
SYRACUSE 3A,2005-041B,2026-06-06T11:58:58.808064,1.00270222,.00031387,4.6167,75.9671,336.7880,68.5468,0,U,28885,999,7564,0,.142E-5,0
INMARSAT 4-F2,2005-044A,2026-06-06T14:09:12.422304,1.00272329,.00031416,5.0801,43.7090,32.6860,174.4008,0,U,28899,999,7541,0,-.248E-5,0
METEOSAT-9 (MSG-2),2005-049B,2026-06-05T20:15:21.955104,1.00267887,.00023261,9.3350,54.2780,40.8445,148.6919,0,U,28912,999,688,0,.135E-5,0
EUTELSAT 174A,2005-052A,2026-06-06T14:37:23.085408,1.00269665,.0006478,4.1920,76.6566,359.5637,212.1524,0,U,28924,999,5222,0,.22E-6,0
ECHOSTAR 10,2006-003A,2026-06-06T12:57:04.602240,1.00271533,.00022087,0.0170,346.5859,57.1476,295.3217,0,U,28935,999,7435,0,-.42E-6,0
SPAINSAT,2006-007A,2026-06-06T09:01:46.338528,1.00273244,.00050382,0.5343,86.7314,347.1578,286.1722,0,U,28945,999,7410,0,-.203E-5,0
JCSAT-5A,2006-010A,2026-06-06T14:05:57.732864,1.00271442,.00021328,1.0811,84.3360,6.6498,147.5605,0,U,29045,999,7366,0,-.314E-5,0
ASTRA 1KR,2006-012A,2026-06-06T13:33:42.218208,1.00271861,.00036261,0.4457,83.2055,349.4210,44.7769,0,U,29055,999,4559,0,.132E-5,0
